ORBCOMM FM115           
1 41186U 15081H   25293.94760613  .00001421  00000+0  31007-3 0  9993
2 41186  46.9974 161.3382 0001287 278.7647  81.3095 14.62762647526187
ORBCOMM FM108           
1 41187U 15081J   25293.21066105  .00001878  00000+0  43744-3 0  9996
2 41187  47.0047 236.4458 0001969 186.7331 173.3529 14.58414167525048
ORBCOMM FM117           
1 41188U 15081K   25293.86203323  .00001815  00000+0  42395-3 0  9995
2 41188  47.0005 232.0893 0002685 197.9666 162.1125 14.58418372525184
ORBCOMM FM116           
1 41189U 15081L   25293.50224063  .00001621  00000+0  38199-3 0  9993
2 41189  47.0030 323.5834 0001798 342.5205  17.5618 14.58494224523947
